OBJECT_NAME,OBJECT_ID,EPOCH,MEAN_MOTION,ECCENTRICITY,INCLINATION,RA_OF_ASC_NODE,ARG_OF_PERICENTER,MEAN_ANOMALY,EPHEMERIS_TYPE,CLASSIFICATION_TYPE,NORAD_CAT_ID,ELEMENT_SET_NO,REV_AT_EPOCH,BSTAR,MEAN_MOTION_DOT,MEAN_MOTION_DDOT
FENGYUN 3D,2017-072A,2026-06-18T23:30:46.399680,14.19740447,.00024949,99.0129,144.4349,60.6130,299.5294,0,U,43010,999,44524,.14225052E-3,.255E-5,0
NOAA 20 (JPSS-1),2017-073A,2026-06-18T21:42:25.892640,14.19511964,.00003241,98.7770,109.3518,111.0718,249.0493,0,U,43013,999,44471,.33289405E-4,.26E-6,0
GOES 17,2018-022A,2026-06-18T21:03:05.149152,1.00269551,.00004951,0.9424,85.6795,27.4319,20.2463,0,U,43226,999,3044,0,-.189E-5,0
SENTINEL-3B,2018-039A,2026-06-18T22:37:51.502944,14.26735128,.00007202,98.6248,237.4501,92.1095,268.0168,0,U,43437,999,42437,.47993084E-4,.72E-6,0
FENGYUN 2H,2018-050A,2026-06-18T23:33:56.274912,1.00269382,.00019346,3.0366,79.0508,138.5014,122.5364,0,U,43491,999,2945,0,-.137E-5,0
METOP-C,2018-087A,2026-06-18T21:33:17.506656,14.21512494,.00018197,98.6644,229.4705,127.3585,232.7758,0,U,43689,999,39507,.50233028E-4,.67E-6,0
GEO-KOMPSAT-2A,2018-100A,2026-06-18T22:05:14.395200,1.00269167,.00018556,0.0487,155.6876,291.5734,279.4528,0,U,43823,999,2764,0,-.35E-5,0
METEOR-M2 2,2019-038A,2026-06-18T22:20:02.069664,14.24366792,.00019957,98.9145,157.2420,45.5594,314.5747,0,U,44387,999,36154,.59211669E-4,.91E-6,0
ARKTIKA-M 1,2021-016A,2026-06-17T11:46:36.471360,2.00622504,.72885287,63.2922,57.5948,269.9420,14.6012,0,U,47719,999,3879,0,-.21E-5,0
FENGYUN 3E,2021-062A,2026-06-18T23:07:15.142080,14.19903794,.00028491,98.7490,173.3517,83.5454,276.6047,0,U,49008,999,25683,-.10747034E-3,-.272E-5,0
GOES 18,2022-021A,2026-06-18T19:06:49.876704,1.00271259,.00003466,0.0077,61.9151,83.1966,271.6138,0,U,51850,999,660,0,.9E-6,0
NOAA 21 (JPSS-2),2022-150A,2026-06-18T22:29:43.170144,14.19565746,.0001768,98.7059,108.6972,150.1450,209.9827,0,U,54234,999,18679,.45431277E-4,.52E-6,0
METEOSAT-12 (MTG-I1),2022-170C,2026-06-18T21:28:30.663840,1.00273101,.00032472,0.7406,23.3193,71.0632,134.4694,0,U,54743,999,1299,0,-.14E-6,0
TIANMU-1 03,2023-039A,2026-06-18T22:12:54.361152,15.47325490,.00041485,97.5237,343.9623,94.7596,265.4127,0,U,55973,999,18110,.23101529E-3,.11705E-3,0
TIANMU-1 04,2023-039B,2026-06-18T21:56:47.169312,15.47923985,.00048402,97.5172,343.1046,91.3684,268.8120,0,U,55974,999,18111,.23513201E-3,.12167E-3,0
TIANMU-1 05,2023-039C,2026-06-18T21:45:19.502208,15.47251204,.00040453,97.5220,343.5567,111.0564,249.1118,0,U,55975,999,18108,.23461999E-3,.11858E-3,0
TIANMU-1 06,2023-039D,2026-06-18T22:01:48.336384,15.47827851,.00043892,97.5225,344.2062,106.3288,253.8445,0,U,55976,999,18111,.23578099E-3,.1216E-3,0
FENGYUN 3G,2023-055A,2026-06-18T23:20:51.425088,15.52697513,.00070099,49.9936,336.8195,303.8108,56.2191,0,U,56232,999,18028,.30512588E-3,.18797E-3,0
METEOR-M2 3,2023-091A,2026-06-18T23:53:35.831904,14.24046908,.00044482,98.6082,224.9369,150.8108,209.3321,0,U,57166,999,15477,.6807201E-5,-.28E-6,0
TIANMU-1 07,2023-101A,2026-06-18T22:21:30.796416,15.29824118,.00041629,97.2587,220.5600,117.9645,242.2017,0,U,57399,999,16191,.17386997E-3,.4948E-4,0
TIANMU-1 08,2023-101B,2026-06-18T23:07:39.597600,15.29829003,.00056368,97.2576,220.3617,110.7594,249.4252,0,U,57400,999,16191,.17239317E-3,.4907E-4,0
TIANMU-1 09,2023-101C,2026-06-18T22:43:43.512960,15.29860606,.00046677,97.2534,219.7603,122.6966,237.4726,0,U,57401,999,16191,.18058603E-3,.5149E-4,0
TIANMU-1 10,2023-101D,2026-06-18T21:57:10.590624,15.29831795,.00062321,97.2614,220.7811,121.6437,238.5412,0,U,57402,999,16190,.17761837E-3,.5059E-4,0
FENGYUN 3F,2023-111A,2026-06-18T22:44:02.088960,14.19939406,.00015863,98.6836,239.9232,92.2686,267.8673,0,U,57490,999,14911,.42378578E-4,.47E-6,0
ARKTIKA-M 2,2023-198A,2026-06-17T18:13:15.259296,2.00612717,.69023443,63.2243,154.2920,267.4286,18.7609,0,U,58584,999,1833,0,.145E-5,0
TIANMU-1 11,2023-205A,2026-06-19T00:27:56.223072,15.27011143,.00087392,97.3444,191.5476,11.0740,349.0689,0,U,58645,999,13780,.16902672E-3,.4411E-4,0
TIANMU-1 12,2023-205B,2026-06-18T23:45:19.455264,15.26976061,.00065147,97.3433,191.2738,357.1069,3.0131,0,U,58646,999,13778,.17549218E-3,.4576E-4,0
TIANMU-1 13,2023-205C,2026-06-19T00:31:54.854688,15.26829425,.00056935,97.3461,191.5785,334.2597,25.8358,0,U,58647,999,13778,.17040765E-3,.4421E-4,0
TIANMU-1 14,2023-205D,2026-06-19T00:10:32.060928,15.26873980,.00066436,97.3396,190.7443,338.4968,21.5991,0,U,58648,999,13778,.17265679E-3,.4487E-4,0
TIANMU-1 19,2023-208A,2026-06-18T22:05:15.342144,15.31594946,.00037058,97.4509,286.2288,320.1973,39.8996,0,U,58660,999,13759,.21029303E-3,.6338E-4,0
