FENGYUN 3D              
1 43010U 17072A   26169.97970370  .00000255  00000+0  14225-3 0  9999
2 43010  99.0129 144.4349 0002494  60.6130 299.5294 14.19740447445244
NOAA 20 (JPSS-1)        
1 43013U 17073A   26169.90446635  .00000026  00000+0  33289-4 0  9996
2 43013  98.7770 109.3518 0000324 111.0718 249.0493 14.19511964444718
GOES 17                 
1 43226U 18022A   26169.87714293 -.00000189  00000+0  00000+0 0  9992
2 43226   0.9424  85.6795 0000495  27.4319  20.2463  1.00269551 30449
SENTINEL-3B             
1 43437U 18039A   26169.94295721  .00000072  00000+0  47993-4 0  9999
2 43437  98.6248 237.4501 0000720  92.1095 268.0168 14.26735128424377
FENGYUN 2H              
1 43491U 18050A   26169.98190133 -.00000137  00000+0  00000+0 0  9993
2 43491   3.0366  79.0508 0001934 138.5014 122.5364  1.00269382 29453
METOP-C                 
1 43689U 18087A   26169.89811929  .00000067  00000+0  50233-4 0  9994
2 43689  98.6644 229.4705 0001819 127.3585 232.7758 14.21512494395079
GEO-KOMPSAT-2A          
1 43823U 18100A   26169.92030550 -.00000350  00000+0  00000+0 0  9995
2 43823   0.0487 155.6876 0001855 291.5734 279.4528  1.00269167 27647
METEOR-M2 2             
1 44387U 19038A   26169.93057951  .00000091  00000+0  59212-4 0  9992
2 44387  98.9145 157.2420 0001995  45.5594 314.5747 14.24366792361545
ARKTIKA-M 1             
1 47719U 21016A   26168.49069990 -.00000210  00000+0  00000+0 0  9999
2 47719  63.2922  57.5948 7288528 269.9420  14.6012  2.00622504 38796
FENGYUN 3E              
1 49008U 21062A   26169.96336970 -.00000272  00000+0 -10747-3 0  9993
2 49008  98.7490 173.3517 0002849  83.5454 276.6047 14.19903794256832
GOES 18                 
1 51850U 22021A   26169.79641061  .00000090  00000+0  00000+0 0  9991
2 51850   0.0077  61.9151 0000346  83.1966 271.6138  1.00271259  6601
NOAA 21 (JPSS-2)        
1 54234U 22150A   26169.93730521  .00000052  00000+0  45431-4 0  9999
2 54234  98.7059 108.6972 0001768 150.1450 209.9827 14.19565746186795
METEOSAT-12 (MTG-I1)    
1 54743U 22170C   26169.89479935 -.00000014  00000+0  00000+0 0  9997
2 54743   0.7406  23.3193 0003247  71.0632 134.4694  1.00273101 12995
TIANMU-1 03             
1 55973U 23039A   26169.92562918  .00011705  00000+0  23102-3 0  9996
2 55973  97.5237 343.9623 0004148  94.7596 265.4127 15.47325490181109
TIANMU-1 04             
1 55974U 23039B   26169.91443483  .00012167  00000+0  23513-3 0  9990
2 55974  97.5172 343.1046 0004840  91.3684 268.8120 15.47923985181113
TIANMU-1 05             
1 55975U 23039C   26169.90647572  .00011858  00000+0  23462-3 0  9994
2 55975  97.5220 343.5567 0004045 111.0564 249.1118 15.47251204181087
TIANMU-1 06             
1 55976U 23039D   26169.91792056  .00012160  00000+0  23578-3 0  9999
2 55976  97.5225 344.2062 0004389 106.3288 253.8445 15.47827851181118
FENGYUN 3G              
1 56232U 23055A   26169.97281742  .00018797  00000+0  30513-3 0  9993
2 56232  49.9936 336.8195 0007009 303.8108  56.2191 15.52697513180281
METEOR-M2 3             
1 57166U 23091A   26169.99555361 -.00000028  00000+0  68072-5 0  9995
2 57166  98.6082 224.9369 0004448 150.8108 209.3321 14.24046908154770
TIANMU-1 07             
1 57399U 23101A   26169.93160644  .00004948  00000+0  17387-3 0  9990
2 57399  97.2587 220.5600 0004162 117.9645 242.2017 15.29824118161911
TIANMU-1 08             
1 57400U 23101B   26169.96365275  .00004907  00000+0  17239-3 0  9994
2 57400  97.2576 220.3617 0005636 110.7594 249.4252 15.29829003161917
TIANMU-1 09             
1 57401U 23101C   26169.94703140  .00005149  00000+0  18059-3 0  9990
2 57401  97.2534 219.7603 0004667 122.6966 237.4726 15.29860606161914
TIANMU-1 10             
1 57402U 23101D   26169.91470591  .00005059  00000+0  17762-3 0  9999
2 57402  97.2614 220.7811 0006232 121.6437 238.5412 15.29831795161909
FENGYUN 3F              
1 57490U 23111A   26169.94724640  .00000047  00000+0  42379-4 0  9992
2 57490  98.6836 239.9232 0001586  92.2686 267.8673 14.19939406149111
ARKTIKA-M 2             
1 58584U 23198A   26168.75920439  .00000145  00000+0  00000+0 0  9993
2 58584  63.2243 154.2920 6902344 267.4286  18.7609  2.00612717 18330
TIANMU-1 11             
1 58645U 23205A   26170.01940073  .00004411  00000+0  16903-3 0  9991
2 58645  97.3444 191.5476 0008739  11.0740 349.0689 15.27011143137807
TIANMU-1 12             
1 58646U 23205B   26169.98980851  .00004576  00000+0  17549-3 0  9993
2 58646  97.3433 191.2738 0006514 357.1069   3.0131 15.26976061137785
TIANMU-1 13             
1 58647U 23205C   26170.02216267  .00004421  00000+0  17041-3 0  9990
2 58647  97.3461 191.5785 0005693 334.2597  25.8358 15.26829425137785
TIANMU-1 14             
1 58648U 23205D   26170.00731552  .00004487  00000+0  17266-3 0  9999
2 58648  97.3396 190.7443 0006643 338.4968  21.5991 15.26873980137780
TIANMU-1 19             
1 58660U 23208A   26169.92031646  .00006338  00000+0  21029-3 0  9991
2 58660  97.4509 286.2288 0003705 320.1973  39.8996 15.31594946137593
